INTELSAT 21 (IS-21)     
1 38749U 12045A   23041.80888263 -.00000273  00000+0  00000+0 0  9997
2 38749   0.0132  96.1389 0002097 229.8704  47.7850  1.00273340 38265
SPOT 6                  
1 38755U 12047A   23042.06127974  .00000627  00000+0  14468-3 0  9999
2 38755  98.2057 111.1409 0001027  89.1146 271.0201 14.58563306554937
AEROCUBE 4.5A           
1 38767U 12048K   23041.83705522  .00014843  00000+0  10094-2 0  9993
2 38767  64.6643  80.9441 0147652 195.7355 163.9148 14.98012195186443
AEROCUBE 4.5B           
1 38768U 12048L   23041.34986800  .00020256  00000+0  12185-2 0  9998
2 38768  64.6664  30.9689 0129800 190.6838 169.1519 15.04028733186860
METOP-B                 
1 38771U 12049A   23042.09731087  .00000335  00000+0  17296-3 0  9996
2 38771  98.6974 103.4776 0001448  82.3638 312.6697 14.21482444539630
BEIDOU 15               
1 38775U 12050B   23041.18320269  .00000001  00000+0  00000+0 0  9998
2 38775  55.5486 103.6891 0012824 322.5116  34.8806  1.86231197 70880
ASTRA 2F                
1 38778U 12051A   23041.89216235  .00000162  00000+0  00000+0 0  9995
2 38778   0.1053 258.3170 0002850  11.9092 219.8396  1.00275927 28873
GSAT-10                 
1 38779U 12051B   23041.91616064 -.00000153  00000+0  00000+0 0  9994
2 38779   0.0164 114.2297 0003507 172.8730 266.4319  1.00271885 37863
VRSS-1                  
1 38782U 12052A   23042.12591289  .00001156  00000+0  17332-3 0  9997
2 38782  97.6354  72.9627 0016682 265.0267  94.9044 14.76292293559091
NAVSTAR 67 (USA 239)    
1 38833U 12053A   23041.80614940  .00000073  00000+0  00000+0 0  9996
2 38833  53.5186 193.5940 0135513  50.0481 311.1014  2.00564359 74929
GSAT0103 (GALILEO-FM3)  
1 38857U 12055A   23042.03118873  .00000014  00000+0  00000+0 0  9999
2 38857  55.2108 135.1378 0003844 251.7201 108.2704  1.70473547 64313
GSAT0104 (GALILEO-FM4)  
1 38858U 12055B   23040.82776833  .00000012  00000+0  00000+0 0  9999
2 38858  55.2104 135.1726 0001927 230.5905 129.4230  1.70473735 64153
SJ-9A                   
1 38860U 12056A   23042.11116690  .00001520  00000+0  20442-3 0  9997
2 38860  97.5804  56.2357 0027805 313.0872  46.8033 14.80361725557697
SJ-9B                   
1 38861U 12056B   23042.10907091  .00003647  00000+0  45770-3 0  9993
2 38861  97.5755  67.6750 0016340 301.6440  58.3179 14.82651826558148
INTELSAT 23 (IS-23)     
1 38867U 12057A   23042.06507624 -.00000272  00000+0  00000+0 0  9998
2 38867   0.0369 272.8735 0001911 115.7833  82.6210  1.00267491 37858
BEIDOU 16               
1 38953U 12059A   23041.91616064 -.00000163  00000+0  00000+0 0  9997
2 38953   1.5143  82.4127 0010768 295.6898 176.4487  1.00270409 37658
LUCH 5B                 
1 38977U 12061A   23041.88889998 -.00000125  00000+0  00000+0 0  9998
2 38977   7.8075  60.7987 0000477 206.7130 176.8483  1.00271994 37928
YAMAL 300K              
1 38978U 12061B   23042.05257757  .00000084  00000+0  00000+0 0  9994
2 38978   0.0141 131.5628 0000720  22.0154 189.1246  1.00274788 37617
STAR ONE C3             
1 38991U 12062A   23041.41833589 -.00000237  00000+0  00000+0 0  9993
2 38991   0.0127 261.0320 0001946  72.4499 242.3268  1.00265727 37491
EUTELSAT 21B            
1 38992U 12062B   23041.85604948  .00000142  00000+0  00000+0 0  9991
2 38992   0.0676 355.9754 0002817 319.5808 154.8601  1.00269297 37586
HUANJING 1C (HJ-1C)     
1 38997U 12064A   23042.19917653  .00497646  00000+0  17465-2 0  9991
2 38997  97.0509  73.8037 0003208 202.8862 221.3420 15.88024461575760
FENGNIAO 1 (FN-1)       
1 38998U 12064B   23041.83144157  .00038844  00000+0  55123-3 0  9998
2 38998  97.1129  79.3165 0005572  94.1214 266.0678 15.56321674574505
ECHOSTAR 16             
1 39008U 12065A   23041.23448892 -.00000270  00000+0  00000+0 0  9992
2 39008   0.0193 101.2588 0002218 234.6344 187.0535  1.00270905 37361
YAOGAN 16A              
1 39011U 12066A   23042.15128257 -.00000182  00000+0 -11102-3 0  9991
2 39011  63.3645 202.2013 0332695  18.0264 343.2226 13.45251154501742
YAOGAN 16B              
1 39012U 12066B   23042.15415089 -.00000106  00000+0 -18378-4 0  9993
2 39012  63.3662 202.3524 0332348  17.8018 343.4314 13.45247668501755
YAOGAN 16C              
1 39013U 12066C   23041.92700941  .00000014  00000+0  12644-3 0  9997
2 39013  63.3649 202.3188 0333040  17.4394 343.7754 13.45250847501743
CHINASAT 12 (ZX 12)     
1 39017U 12067A   23041.89285299 -.00000194  00000+0  00000+0 0  9991
2 39017   0.0115 134.1206 0002788 189.7448 225.7185  1.00270233 37459
PLEIADES 1B             
1 39019U 12068A   23042.07940446  .00000630  00000+0  14538-3 0  9996
2 39019  98.2072 118.5674 0001398 105.7852 254.3575 14.58551695542712
EUTELSAT 70B            
1 39020U 12069A   23042.11785380 -.00000031  00000+0  00000+0 0  9999
2 39020   0.0627  14.8224 0004399 251.4343 347.5660  1.00270660 37350
YAMAL 402               
1 39022U 12070A   23041.18593809  .00000097  00000+0  00000+0 0  9993
2 39022   0.0215 131.7534 0004296 184.3840 305.6914  1.00273748 37335
GOKTURK 2               
1 39030U 12073A   23042.08628071  .00000861  00000+0  14148-3 0  9996
2 39030  97.8228 277.8207 0001554  46.5376 313.5984 14.72992029544485
SKYNET 5D               
1 39034U 12075A   23041.61583081  .00000110  00000+0  00000+0 0  9996
2 39034   0.0718 355.9436 0003953 327.8445  91.0739  1.00275690 36890
MEXSAT 3                
1 39035U 12075B   23041.58244666 -.00000013  00000+0  00000+0 0  9999
2 39035   0.0168  80.3345 0001726 241.4590 273.4644  1.00270624 36923
COSMOS 2482             
1 39057U 13001A   23041.68868664  .00000048  00000+0  27724-3 0  9997
2 39057  82.4953 260.8819 0027375 170.6309 189.5284 12.42933224456915
COSMOS 2483             
1 39058U 13001B   23041.65584487  .00000029  00000+0  13578-3 0  9994
2 39058  82.4956 256.8059 0016581 163.0889 197.0734 12.43975764457287
COSMOS 2484             
1 39059U 13001C   23041.65645265  .00000053  00000+0  31126-3 0  9993
2 39059  82.4991 262.0034 0026046 179.5644 180.5463 12.42872265456890
TDRS 11                 
1 39070U 13004A   23041.78571520  .00000094  00000+0  00000+0 0  9993
2 39070   2.7594 353.5961 0005027  43.1119 212.4686  1.00278246 34436
GLOBALSTAR M097         
1 39072U 13005A   23041.24448351 -.00000088  00000+0  87041-4 0  9991
2 39072  52.0071   6.1002 0000483 122.8300 237.2614 12.62262565462462
GLOBALSTAR M093         
1 39073U 13005B   23041.13885773 -.00000088  00000+0  88068-4 0  9993
2 39073  51.9836   1.0995 0000576 133.2336 226.8579 12.62267920462401
GLOBALSTAR M094         
1 39074U 13005C   23041.93082415 -.00000080  00000+0  13371-3 0  9990
2 39074  51.9946 272.2165 0000726  81.7145 278.3804 12.62267878464134
GLOBALSTAR M096         
1 39075U 13005D   23042.02307789 -.00000066  00000+0  20919-3 0  9996
2 39075  52.0093 319.7782 0000531  97.4871 262.6056 12.62265390463395
GLOBALSTAR M078         
1 39076U 13005E   23041.28358888 -.00000116  00000+0 -66770-4 0  9993
2 39076  51.9884  47.6995 0001204  91.1351 268.9654 12.62277748461578
GLOBALSTAR M095         
1 39077U 13005F   23042.02312777 -.00000108  00000+0 -22005-4 0  9998
2 39077  51.9811  43.0731 0000957 118.8458 241.2505 12.62263138461887
AMAZONAS 3              
1 39078U 13006A   23041.34612569 -.00000271  00000+0  00000+0 0  9992
2 39078   0.0592 257.7748 0002947  28.0170 277.9423  1.00271270 32644
AZERSPACE 1             
1 39079U 13006B   23042.07757538  .00000145  00000+0  00000+0 0  9999
2 39079   0.0324 270.8920 0001221  63.1250 240.7604  1.00273160 36675
LANDSAT 8               
1 39084U 13008A   23042.05126235  .00001045  00000+0  24189-3 0  9997
2 39084  98.1954 113.9859 0000980  88.1476 271.9835 14.57128323531740
SARAL                   
1 39086U 13009A   23042.13479492  .00000354  00000+0  14779-3 0  9991
2 39086  98.5444 229.2596 0001048 328.4974  31.6146 14.32131277520646
SAPPHIRE                
1 39088U 13009C   23041.50376754  .00000438  00000+0  17079-3 0  9999
2 39088  98.4164 236.1995 0010282 291.5646  68.4443 14.34381680521244
NEOSSAT                 
1 39089U 13009D   23042.25085675  .00000532  00000+0  20269-3 0  9992
2 39089  98.4118 237.4825 0010211 289.3026  70.7055 14.34774024521466
STRAND-1                
1 39090U 13009E   23041.98455536  .00000808  00000+0  29579-3 0  9999
2 39090  98.3918 238.7714 0007933 282.7806  77.2493 14.35446058521637
BRITE-AUSTRIA           
1 39091U 13009F   23042.25388218  .00000560  00000+0  20996-3 0  9992
2 39091  98.3940 238.2413 0009387 289.0575  70.9594 14.35382395521693
SBIRS GEO-2 (USA 241)   
1 39120U 13011A   23041.85049427 -.00000245  00000+0  00000+0 0  9990
2 39120   2.1930  33.3046 0002304 282.1861  93.3145  1.00271410 36288
EUTELSAT 117 WEST A     
1 39122U 13012A   23041.65374755 -.00000001  00000+0  00000+0 0  9996
2 39122   0.0513 289.0361 0002960  37.5881 292.3719  1.00271562 36181
ANIK G1                 
1 39127U 13014A   23042.24440580 -.00000062  00000+0  00000+0 0  9996
2 39127   0.0330 273.3650 0002559  36.7139 171.6315  1.00271638 35994
SOMP                    
1 39134U 13015E   23041.97033254  .00075667  00000+0  18351-2 0  9993
2 39134  64.8586 353.9257 0022586 249.5887 110.2824 15.40348304543797
BEESAT-3                
1 39135U 13015F   23042.26360721  .00053916  00000+0  17088-2 0  9998
2 39135  64.8634  36.2264 0028885 250.1052 109.6968 15.31990704543003
BEESAT-2                
1 39136U 13015G   23041.39395301  .00046610  00000+0  15714-2 0  9991
2 39136  64.8720  48.9922 0025988 287.7119  72.1176 15.30136245542210
GAOFEN 1                
1 39150U 13018A   23042.12013381  .00001306  00000+0  19454-3 0  9996
2 39150  98.0457 113.0827 0020701 235.0312 124.8992 14.76479901527952
NEE-01 PEGASO           
1 39151U 13018B   23042.03162042  .00005879  00000+0  74887-3 0  9996
2 39151  97.9988 152.1643 0016116 198.3776 161.6857 14.81830987529008
